[{"OBJECT_NAME":"ONEWEB-0384","OBJECT_ID":"2021-090AH","EPOCH":"2026-03-09T16:02:26.100096","MEAN_MOTION":13.20807317,"ECCENTRICITY":0.00010562,"INCLINATION":87.9176,"RA_OF_ASC_NODE":294.3491,"ARG_OF_PERICENTER":83.0221,"MEAN_ANOMALY":277.1032,"EPHEMERIS_TYPE":0,"CLASSIFICATION_TYPE":"U","NORAD_CAT_ID":49310,"ELEMENT_SET_NO":999,"REV_AT_EPOCH":21669,"BSTAR":4.8243514e-5,"MEAN_MOTION_DOT":3.3e-7,"MEAN_MOTION_DDOT":0},{"OBJECT_NAME":"DELTA 1 DEB","OBJECT_ID":"1972-058GT","EPOCH":"2026-03-09T03:11:42.187488","MEAN_MOTION":12.7418797,"ECCENTRICITY":0.0840146,"INCLINATION":97.4426,"RA_OF_ASC_NODE":143.2224,"ARG_OF_PERICENTER":345.2808,"MEAN_ANOMALY":12.5128,"EPHEMERIS_TYPE":0,"CLASSIFICATION_TYPE":"U","NORAD_CAT_ID":8544,"ELEMENT_SET_NO":999,"REV_AT_EPOCH":50524,"BSTAR":0.00018980273,"MEAN_MOTION_DOT":1.5e-6,"MEAN_MOTION_DDOT":0}]
